{
  "type": "FeatureCollection",
  "features": [
    {
      "type": "Feature",
      "properties": {
        "norad_id": 66828,
        "name": "STARLINK-35982",
        "group": "last-30-days",
        "lat": -69.86783207715594,
        "lon": 65.94723010889398,
        "alt_km": 413.21186493235564,
        "timestamp": "2025-12-25T20:42:37.408646+00:00",
        "meta_object_name": "STARLINK-35982",
        "meta_object_id": "2025-280H",
        "meta_epoch": "2025-12-25T05:38:41.067456",
        "meta_mean_motion": 15.52564906,
        "meta_eccentricity": 0.0003291,
        "meta_inclination": 70.0004,
        "meta_ra_of_asc_node": 164.1728,
        "meta_arg_of_pericenter": 269.4394,
        "meta_mean_anomaly": 90.6415,
        "meta_ephemeris_type": 0,
        "meta_classification_type": "U",
        "meta_norad_cat_id": 66828,
        "meta_element_set_no": 999,
        "meta_rev_at_epoch": 487,
        "meta_bstar": 0.0019012297,
        "meta_mean_motion_dot": 0.00118756,
        "meta_mean_motion_ddot": 0,
        "tle_line1": "1 66828U 25280H   25359.23519754  .00118756  00000+0  19012-2 0  9999",
        "tle_line2": "2 66828  70.0004 164.1728 0003291 269.4394  90.6415 15.52564906  4871"
      },
      "geometry": {
        "type": "Point",
        "coordinates": [
          65.94723010889398,
          -69.86783207715594
        ]
      }
    },
    {
      "type": "Feature",
      "properties": {
        "norad_id": 66829,
        "name": "STARLINK-36084",
        "group": "last-30-days",
        "lat": -69.57466448011516,
        "lon": 60.42554809907625,
        "alt_km": 413.32797924172246,
        "timestamp": "2025-12-25T20:42:37.408656+00:00",
        "meta_object_name": "STARLINK-36084",
        "meta_object_id": "2025-280J",
        "meta_epoch": "2025-12-25T05:39:10.733760",
        "meta_mean_motion": 15.52562463,
        "meta_eccentricity": 0.00031948,
        "meta_inclination": 70.0005,
        "meta_ra_of_asc_node": 164.1736,
        "meta_arg_of_pericenter": 270.0635,
        "meta_mean_anomaly": 90.0186,
        "meta_ephemeris_type": 0,
        "meta_classification_type": "U",
        "meta_norad_cat_id": 66829,
        "meta_element_set_no": 999,
        "meta_rev_at_epoch": 487,
        "meta_bstar": 0.0017221091,
        "meta_mean_motion_dot": 0.00107387,
        "meta_mean_motion_ddot": 0,
        "tle_line1": "1 66829U 25280J   25359.23554090  .00107387  00000+0  17221-2 0  9990",
        "tle_line2": "2 66829  70.0005 164.1736 0003194 270.0635  90.0186 15.52562463  4875"
      },
      "geometry": {
        "type": "Point",
        "coordinates": [
          60.42554809907625,
          -69.57466448011516
        ]
      }
    },
    {
      "type": "Feature",
      "properties": {
        "norad_id": 66830,
        "name": "STARLINK-35881",
        "group": "last-30-days",
        "lat": -69.98482993685255,
        "lon": 71.4962613638522,
        "alt_km": 413.29051418428844,
        "timestamp": "2025-12-25T20:42:37.408668+00:00",
        "meta_object_name": "STARLINK-35881",
        "meta_object_id": "2025-280K",
        "meta_epoch": "2025-12-25T05:38:11.391648",
        "meta_mean_motion": 15.52568098,
        "meta_eccentricity": 0.00032247,
        "meta_inclination": 70.0006,
        "meta_ra_of_asc_node": 164.1707,
        "meta_arg_of_pericenter": 269.749,
        "meta_mean_anomaly": 90.3327,
        "meta_ephemeris_type": 0,
        "meta_classification_type": "U",
        "meta_norad_cat_id": 66830,
        "meta_element_set_no": 999,
        "meta_rev_at_epoch": 487,
        "meta_bstar": 0.0017247793,
        "meta_mean_motion_dot": 0.00107578,
        "meta_mean_motion_ddot": 0,
        "tle_line1": "1 66830U 25280K   25359.23485407  .00107578  00000+0  17248-2 0  9998",
        "tle_line2": "2 66830  70.0006 164.1707 0003224 269.7490  90.3327 15.52568098  4874"
      },
      "geometry": {
        "type": "Point",
        "coordinates": [
          71.4962613638522,
          -69.98482993685255
        ]
      }
    },
    {
      "type": "Feature",
      "properties": {
        "norad_id": 66831,
        "name": "STARLINK-35788",
        "group": "last-30-days",
        "lat": -69.93570379881525,
        "lon": 76.72866787558826,
        "alt_km": 413.4368956969629,
        "timestamp": "2025-12-25T20:42:37.408678+00:00",
        "meta_object_name": "STARLINK-35788",
        "meta_object_id": "2025-280L",
        "meta_epoch": "2025-12-25T05:37:41.844576",
        "meta_mean_motion": 15.52545559,
        "meta_eccentricity": 0.00033434,
        "meta_inclination": 70.0004,
        "meta_ra_of_asc_node": 164.1703,
        "meta_arg_of_pericenter": 277.1973,
        "meta_mean_anomaly": 82.8833,
        "meta_ephemeris_type": 0,
        "meta_classification_type": "U",
        "meta_norad_cat_id": 66831,
        "meta_element_set_no": 999,
        "meta_rev_at_epoch": 487,
        "meta_bstar": 0.0010701882,
        "meta_mean_motion_dot": 0.00066286,
        "meta_mean_motion_ddot": 0,
        "tle_line1": "1 66831U 25280L   25359.23451209  .00066286  00000+0  10702-2 0  9990",
        "tle_line2": "2 66831  70.0004 164.1703 0003343 277.1973  82.8833 15.52545559  4875"
      },
      "geometry": {
        "type": "Point",
        "coordinates": [
          76.72866787558826,
          -69.93570379881525
        ]
      }
    },
    {
      "type": "Feature",
      "properties": {
        "norad_id": 66832,
        "name": "STARLINK-35768",
        "group": "last-30-days",
        "lat": -69.71055742908003,
        "lon": 82.327642712443,
        "alt_km": 413.4109027221193,
        "timestamp": "2025-12-25T20:42:37.408690+00:00",
        "meta_object_name": "STARLINK-35768",
        "meta_object_id": "2025-280M",
        "meta_epoch": "2025-12-25T05:37:12.178272",
        "meta_mean_motion": 15.52552681,
        "meta_eccentricity": 0.00033022,
        "meta_inclination": 70.0007,
        "meta_ra_of_asc_node": 164.1681,
        "meta_arg_of_pericenter": 272.1725,
        "meta_mean_anomaly": 87.9084,
        "meta_ephemeris_type": 0,
        "meta_classification_type": "U",
        "meta_norad_cat_id": 66832,
        "meta_element_set_no": 999,
        "meta_rev_at_epoch": 487,
        "meta_bstar": 0.0011775397,
        "meta_mean_motion_dot": 0.00073033,
        "meta_mean_motion_ddot": 0,
        "tle_line1": "1 66832U 25280M   25359.23416873  .00073033  00000+0  11775-2 0  9998",
        "tle_line2": "2 66832  70.0007 164.1681 0003302 272.1725  87.9084 15.52552681  4877"
      },
      "geometry": {
        "type": "Point",
        "coordinates": [
          82.327642712443,
          -69.71055742908003
        ]
      }
    },
    {
      "type": "Feature",
      "properties": {
        "norad_id": 66833,
        "name": "STARLINK-35858",
        "group": "last-30-days",
        "lat": -69.30873576143708,
        "lon": 87.79444358129972,
        "alt_km": 413.5144782334164,
        "timestamp": "2025-12-25T20:42:37.408700+00:00",
        "meta_object_name": "STARLINK-35858",
        "meta_object_id": "2025-280N",
        "meta_epoch": "2025-12-25T05:36:42.440256",
        "meta_mean_motion": 15.52557013,
        "meta_eccentricity": 0.00031518,
        "meta_inclination": 70.0005,
        "meta_ra_of_asc_node": 164.1675,
        "meta_arg_of_pericenter": 262.1942,
        "meta_mean_anomaly": 97.8887,
        "meta_ephemeris_type": 0,
        "meta_classification_type": "U",
        "meta_norad_cat_id": 66833,
        "meta_element_set_no": 999,
        "meta_rev_at_epoch": 487,
        "meta_bstar": 0.001372725,
        "meta_mean_motion_dot": 0.0008531,
        "meta_mean_motion_ddot": 0,
        "tle_line1": "1 66833U 25280N   25359.23382454  .00085310  00000+0  13727-2 0  9996",
        "tle_line2": "2 66833  70.0005 164.1675 0003151 262.1942  97.8887 15.52557013  4876"
      },
      "geometry": {
        "type": "Point",
        "coordinates": [
          87.79444358129972,
          -69.30873576143708
        ]
      }
    },
    {
      "type": "Feature",
      "properties": {
        "norad_id": 66834,
        "name": "STARLINK-35840",
        "group": "last-30-days",
        "lat": -68.73132237652656,
        "lon": 93.10431597452009,
        "alt_km": 413.4051929002944,
        "timestamp": "2025-12-25T20:42:37.408732+00:00",
        "meta_object_name": "STARLINK-35840",
        "meta_object_id": "2025-280P",
        "meta_epoch": "2025-12-24T23:25:05.853216",
        "meta_mean_motion": 15.52550883,
        "meta_eccentricity": 0.00031525,
        "meta_inclination": 70.0008,
        "meta_ra_of_asc_node": 164.8711,
        "meta_arg_of_pericenter": 273.7303,
        "meta_mean_anomaly": 86.3523,
        "meta_ephemeris_type": 0,
        "meta_classification_type": "U",
        "meta_norad_cat_id": 66834,
        "meta_element_set_no": 999,
        "meta_rev_at_epoch": 483,
        "meta_bstar": 0.0011724989,
        "meta_mean_motion_dot": 0.0007271,
        "meta_mean_motion_ddot": 0,
        "tle_line1": "1 66834U 25280P   25358.97576219  .00072710  00000+0  11725-2 0  9997",
        "tle_line2": "2 66834  70.0008 164.8711 0003152 273.7303  86.3523 15.52550883  4832"
      },
      "geometry": {
        "type": "Point",
        "coordinates": [
          93.10431597452009,
          -68.73132237652656
        ]
      }
    }
  ]
}